IRIDIUM 63              
1 25286U 98021B   25203.56428807  .00000311  00000+0  99029-4 0  9992
2 25286  86.3946  67.2860 0002184  91.6141 268.5306 14.36565327428924
IRIDIUM 69              
1 25319U 98026A   25203.60724338  .00000398  00000+0  11770-3 0  9998
2 25319  86.3945  80.4530 0000190 284.5446  75.5732 14.40994196428167
IRIDIUM 71              
1 25320U 98026B   25203.88718842  .00000336  00000+0  98032-4 0  9992
2 25320  86.3940  75.0181 0002199  28.5162 331.6158 14.41180022428982
IRIDIUM 73              
1 25344U 98032C   25203.76638893  .00000502  00000+0  11994-3 0  9995
2 25344  86.4396  31.6978 0001751 102.8704 257.2698 14.51743698436028
IRIDIUM 82              
1 25467U 98051A   25204.19239026  .00028129  00000+0  77195-3 0  9995
2 25467  86.3653  92.0161 0083783 157.6314 202.8626 15.33554434429471
